[{"OBJECT_NAME":"VSP ROSE","OBJECT_ID":"2024-043AC","EPOCH":"2026-03-09T21:48:06.922944","MEAN_MOTION":15.27746075,"ECCENTRICITY":0.00099339,"INCLINATION":97.5443,"RA_OF_ASC_NODE":203.927,"ARG_OF_PERICENTER":232.2702,"MEAN_ANOMALY":127.7637,"EPHEMERIS_TYPE":0,"CLASSIFICATION_TYPE":"U","NORAD_CAT_ID":59124,"ELEMENT_SET_NO":999,"REV_AT_EPOCH":11182,"BSTAR":0.00025731354,"MEAN_MOTION_DOT":6.907e-5,"MEAN_MOTION_DDOT":0},{"OBJECT_NAME":"STARLINK-32954","OBJECT_ID":"2025-075V","EPOCH":"2026-03-09T22:00:15.850368","MEAN_MOTION":15.27606305,"ECCENTRICITY":0.00010063,"INCLINATION":42.9995,"RA_OF_ASC_NODE":269.1906,"ARG_OF_PERICENTER":8.775,"MEAN_ANOMALY":351.3119,"EPHEMERIS_TYPE":0,"CLASSIFICATION_TYPE":"U","NORAD_CAT_ID":63567,"ELEMENT_SET_NO":999,"REV_AT_EPOCH":5196,"BSTAR":0.0013541156,"MEAN_MOTION_DOT":0.00037218,"MEAN_MOTION_DDOT":0}]
